[{"CCSDS_OMM_VERS":"3.0","COMMENT":"GENERATED VIA SPACE-TRACK.ORG API","CREATION_DATE":"2026-05-21T03:02:41","ORIGINATOR":"18 SPCS","OBJECT_NAME":"COSMOS 2584(GLONASS)","OBJECT_ID":"2025-042A","CENTER_NAME":"EARTH","REF_FRAME":"TEME","TIME_SYSTEM":"UTC","MEAN_ELEMENT_THEORY":"SGP4","EPOCH":"2026-05-20T10:53:51.319680","MEAN_MOTION":"2.13103740","ECCENTRICITY":"0.00061408","INCLINATION":"65.0695","RA_OF_ASC_NODE":"73.7444","ARG_OF_PERICENTER":"233.1175","MEAN_ANOMALY":"126.8187","EPHEMERIS_TYPE":"0","CLASSIFICATION_TYPE":"U","NORAD_CAT_ID":"63130","ELEMENT_SET_NO":"999","REV_AT_EPOCH":"945","BSTAR":"0.00000000000000","MEAN_MOTION_DOT":"-0.00000007","MEAN_MOTION_DDOT":"0.0000000000000","SEMIMAJOR_AXIS":"25507.886","PERIOD":"675.727","APOAPSIS":"19145.414","PERIAPSIS":"19114.087","OBJECT_TYPE":"PAYLOAD","RCS_SIZE":"LARGE","COUNTRY_CODE":"CIS","LAUNCH_DATE":"2025-03-02","SITE":"PKMTR","DECAY_DATE":null,"FILE":"5207306","GP_ID":"324040284","TLE_LINE0":"0 COSMOS 2584(GLONASS)","TLE_LINE1":"1 63130U 25042A   26140.45406620 -.00000007  00000-0  00000-0 0  9994","TLE_LINE2":"2 63130  65.0695  73.7444 0006141 233.1175 126.8187  2.13103740  9451"},{"CCSDS_OMM_VERS":"3.0","COMMENT":"GENERATED VIA SPACE-TRACK.ORG API","CREATION_DATE":"2026-05-23T17:30:58","ORIGINATOR":"18 SPCS","OBJECT_NAME":"COSMOS 2584(GLONASS)","OBJECT_ID":"2025-042A","CENTER_NAME":"EARTH","REF_FRAME":"TEME","TIME_SYSTEM":"UTC","MEAN_ELEMENT_THEORY":"SGP4","EPOCH":"2026-05-20T22:09:35.274816","MEAN_MOTION":"2.13103746","ECCENTRICITY":"0.00061185","INCLINATION":"65.0699","RA_OF_ASC_NODE":"73.7284","ARG_OF_PERICENTER":"233.1924","MEAN_ANOMALY":"126.7452","EPHEMERIS_TYPE":"0","CLASSIFICATION_TYPE":"U","NORAD_CAT_ID":"63130","ELEMENT_SET_NO":"999","REV_AT_EPOCH":"946","BSTAR":"0.00000000000000","MEAN_MOTION_DOT":"-0.00000007","MEAN_MOTION_DDOT":"0.0000000000000","SEMIMAJOR_AXIS":"25507.885","PERIOD":"675.727","APOAPSIS":"19145.357","PERIAPSIS":"19114.143","OBJECT_TYPE":"PAYLOAD","RCS_SIZE":"LARGE","COUNTRY_CODE":"CIS","LAUNCH_DATE":"2025-03-02","SITE":"PKMTR","DECAY_DATE":null,"FILE":"5210736","GP_ID":"324560340","TLE_LINE0":"0 COSMOS 2584(GLONASS)","TLE_LINE1":"1 63130U 25042A   26140.92332494 -.00000007  00000-0  00000-0 0  9993","TLE_LINE2":"2 63130  65.0699  73.7284 0006119 233.1924 126.7452  2.13103746  9465"},{"CCSDS_OMM_VERS":"3.0","COMMENT":"GENERATED VIA SPACE-TRACK.ORG API","CREATION_DATE":"2026-05-21T10:54:40","ORIGINATOR":"18 SPCS","OBJECT_NAME":"COSMOS 2584(GLONASS)","OBJECT_ID":"2025-042A","CENTER_NAME":"EARTH","REF_FRAME":"TEME","TIME_SYSTEM":"UTC","MEAN_ELEMENT_THEORY":"SGP4","EPOCH":"2026-05-20T22:09:35.281728","MEAN_MOTION":"2.13103738","ECCENTRICITY":"0.00061333","INCLINATION":"65.0698","RA_OF_ASC_NODE":"73.7284","ARG_OF_PERICENTER":"233.0427","MEAN_ANOMALY":"126.8949","EPHEMERIS_TYPE":"0","CLASSIFICATION_TYPE":"U","NORAD_CAT_ID":"63130","ELEMENT_SET_NO":"999","REV_AT_EPOCH":"946","BSTAR":"0.00000000000000","MEAN_MOTION_DOT":"-0.00000007","MEAN_MOTION_DDOT":"0.0000000000000","SEMIMAJOR_AXIS":"25507.886","PERIOD":"675.727","APOAPSIS":"19145.396","PERIAPSIS":"19114.106","OBJECT_TYPE":"PAYLOAD","RCS_SIZE":"LARGE","COUNTRY_CODE":"CIS","LAUNCH_DATE":"2025-03-02","SITE":"PKMTR","DECAY_DATE":null,"FILE":"5207355","GP_ID":"324073175","TLE_LINE0":"0 COSMOS 2584(GLONASS)","TLE_LINE1":"1 63130U 25042A   26140.92332502 -.00000007  00000-0  00000-0 0  9993","TLE_LINE2":"2 63130  65.0698  73.7284 0006133 233.0427 126.8949  2.13103738  9460"},{"CCSDS_OMM_VERS":"3.0","COMMENT":"GENERATED VIA SPACE-TRACK.ORG API","CREATION_DATE":"2026-05-25T04:06:45","ORIGINATOR":"18 SPCS","OBJECT_NAME":"COSMOS 2584(GLONASS)","OBJECT_ID":"2025-042A","CENTER_NAME":"EARTH","REF_FRAME":"TEME","TIME_SYSTEM":"UTC","MEAN_ELEMENT_THEORY":"SGP4","EPOCH":"2026-05-24T04:59:41.859168","MEAN_MOTION":"2.13103805","ECCENTRICITY":"0.00060498","INCLINATION":"65.0715","RA_OF_ASC_NODE":"73.6167","ARG_OF_PERICENTER":"232.3879","MEAN_ANOMALY":"127.5503","EPHEMERIS_TYPE":"0","CLASSIFICATION_TYPE":"U","NORAD_CAT_ID":"63130","ELEMENT_SET_NO":"999","REV_AT_EPOCH":"953","BSTAR":"0.00000000000000","MEAN_MOTION_DOT":"-0.00000031","MEAN_MOTION_DDOT":"0.0000000000000","SEMIMAJOR_AXIS":"25507.880","PERIOD":"675.727","APOAPSIS":"19145.177","PERIAPSIS":"19114.314","OBJECT_TYPE":"PAYLOAD","RCS_SIZE":"LARGE","COUNTRY_CODE":"CIS","LAUNCH_DATE":"2025-03-02","SITE":"PKMTR","DECAY_DATE":null,"FILE":"5212715","GP_ID":"324773035","TLE_LINE0":"0 COSMOS 2584(GLONASS)","TLE_LINE1":"1 63130U 25042A   26144.20812337 -.00000031  00000-0  00000-0 0  9994","TLE_LINE2":"2 63130  65.0715  73.6167 0006050 232.3879 127.5503  2.13103805  9537"},{"CCSDS_OMM_VERS":"3.0","COMMENT":"GENERATED VIA SPACE-TRACK.ORG API","CREATION_DATE":"2026-05-26T10:30:27","ORIGINATOR":"18 SPCS","OBJECT_NAME":"COSMOS 2584(GLONASS)","OBJECT_ID":"2025-042A","CENTER_NAME":"EARTH","REF_FRAME":"TEME","TIME_SYSTEM":"UTC","MEAN_ELEMENT_THEORY":"SGP4","EPOCH":"2026-05-25T03:31:09.308928","MEAN_MOTION":"2.13103815","ECCENTRICITY":"0.00060220","INCLINATION":"65.0720","RA_OF_ASC_NODE":"73.5848","ARG_OF_PERICENTER":"231.8877","MEAN_ANOMALY":"128.0491","EPHEMERIS_TYPE":"0","CLASSIFICATION_TYPE":"U","NORAD_CAT_ID":"63130","ELEMENT_SET_NO":"999","REV_AT_EPOCH":"955","BSTAR":"0.00000000000000","MEAN_MOTION_DOT":"-0.00000041","MEAN_MOTION_DDOT":"0.0000000000000","SEMIMAJOR_AXIS":"25507.880","PERIOD":"675.727","APOAPSIS":"19145.105","PERIAPSIS":"19114.384","OBJECT_TYPE":"PAYLOAD","RCS_SIZE":"LARGE","COUNTRY_CODE":"CIS","LAUNCH_DATE":"2025-03-02","SITE":"PKMTR","DECAY_DATE":null,"FILE":"5214595","GP_ID":"325013065","TLE_LINE0":"0 COSMOS 2584(GLONASS)","TLE_LINE1":"1 63130U 25042A   26145.14663552 -.00000041  00000-0  00000-0 0  9992","TLE_LINE2":"2 63130  65.0720  73.5848 0006022 231.8877 128.0491  2.13103815  9554"},{"CCSDS_OMM_VERS":"3.0","COMMENT":"GENERATED VIA SPACE-TRACK.ORG API","CREATION_DATE":"2026-05-25T17:37:17","ORIGINATOR":"18 SPCS","OBJECT_NAME":"COSMOS 2584(GLONASS)","OBJECT_ID":"2025-042A","CENTER_NAME":"EARTH","REF_FRAME":"TEME","TIME_SYSTEM":"UTC","MEAN_ELEMENT_THEORY":"SGP4","EPOCH":"2026-05-25T03:31:09.321888","MEAN_MOTION":"2.13103804","ECCENTRICITY":"0.00060252","INCLINATION":"65.0720","RA_OF_ASC_NODE":"73.5848","ARG_OF_PERICENTER":"231.9508","MEAN_ANOMALY":"127.9858","EPHEMERIS_TYPE":"0","CLASSIFICATION_TYPE":"U","NORAD_CAT_ID":"63130","ELEMENT_SET_NO":"999","REV_AT_EPOCH":"955","BSTAR":"0.00000000000000","MEAN_MOTION_DOT":"-0.00000041","MEAN_MOTION_DDOT":"0.0000000000000","SEMIMAJOR_AXIS":"25507.880","PERIOD":"675.727","APOAPSIS":"19145.114","PERIAPSIS":"19114.376","OBJECT_TYPE":"PAYLOAD","RCS_SIZE":"LARGE","COUNTRY_CODE":"CIS","LAUNCH_DATE":"2025-03-02","SITE":"PKMTR","DECAY_DATE":null,"FILE":"5214505","GP_ID":"324979224","TLE_LINE0":"0 COSMOS 2584(GLONASS)","TLE_LINE1":"1 63130U 25042A   26145.14663567 -.00000041  00000-0  00000-0 0  9998","TLE_LINE2":"2 63130  65.0720  73.5848 0006025 231.9508 127.9858  2.13103804  9552"},{"CCSDS_OMM_VERS":"3.0","COMMENT":"GENERATED VIA SPACE-TRACK.ORG API","CREATION_DATE":"2026-05-25T14:56:50","ORIGINATOR":"18 SPCS","OBJECT_NAME":"COSMOS 2584(GLONASS)","OBJECT_ID":"2025-042A","CENTER_NAME":"EARTH","REF_FRAME":"TEME","TIME_SYSTEM":"UTC","MEAN_ELEMENT_THEORY":"SGP4","EPOCH":"2026-05-25T03:31:09.321888","MEAN_MOTION":"2.13103804","ECCENTRICITY":"0.00060250","INCLINATION":"65.0720","RA_OF_ASC_NODE":"73.5848","ARG_OF_PERICENTER":"231.9508","MEAN_ANOMALY":"127.9858","EPHEMERIS_TYPE":"0","CLASSIFICATION_TYPE":"U","NORAD_CAT_ID":"63130","ELEMENT_SET_NO":"999","REV_AT_EPOCH":"955","BSTAR":"0.00000000000000","MEAN_MOTION_DOT":"-0.00000041","MEAN_MOTION_DDOT":"0.0000000000000","SEMIMAJOR_AXIS":"25507.880","PERIOD":"675.727","APOAPSIS":"19145.114","PERIAPSIS":"19114.377","OBJECT_TYPE":"PAYLOAD","RCS_SIZE":"LARGE","COUNTRY_CODE":"CIS","LAUNCH_DATE":"2025-03-02","SITE":"PKMTR","DECAY_DATE":null,"FILE":"5214449","GP_ID":"324946891","TLE_LINE0":"0 COSMOS 2584(GLONASS)","TLE_LINE1":"1 63130U 25042A   26145.14663567 -.00000041  00000-0  00000+0 0  9997","TLE_LINE2":"2 63130  65.0720  73.5848 0006025 231.9508 127.9858  2.13103804  9552"},{"CCSDS_OMM_VERS":"3.0","COMMENT":"GENERATED VIA SPACE-TRACK.ORG API","CREATION_DATE":"2026-05-27T10:30:52","ORIGINATOR":"18 SPCS","OBJECT_NAME":"COSMOS 2584(GLONASS)","OBJECT_ID":"2025-042A","CENTER_NAME":"EARTH","REF_FRAME":"TEME","TIME_SYSTEM":"UTC","MEAN_ELEMENT_THEORY":"SGP4","EPOCH":"2026-05-27T00:34:04.269792","MEAN_MOTION":"2.13103852","ECCENTRICITY":"0.00059671","INCLINATION":"65.0730","RA_OF_ASC_NODE":"73.5210","ARG_OF_PERICENTER":"231.2903","MEAN_ANOMALY":"128.6445","EPHEMERIS_TYPE":"0","CLASSIFICATION_TYPE":"U","NORAD_CAT_ID":"63130","ELEMENT_SET_NO":"999","REV_AT_EPOCH":"959","BSTAR":"0.00000000000000","MEAN_MOTION_DOT":"-0.00000058","MEAN_MOTION_DDOT":"0.0000000000000","SEMIMAJOR_AXIS":"25507.877","PERIOD":"675.727","APOAPSIS":"19144.962","PERIAPSIS":"19114.521","OBJECT_TYPE":"PAYLOAD","RCS_SIZE":"LARGE","COUNTRY_CODE":"CIS","LAUNCH_DATE":"2025-03-02","SITE":"PKMTR","DECAY_DATE":null,"FILE":"5215548","GP_ID":"325195040","TLE_LINE0":"0 COSMOS 2584(GLONASS)","TLE_LINE1":"1 63130U 25042A   26147.02366053 -.00000058  00000-0  00000-0 0  9995","TLE_LINE2":"2 63130  65.0730  73.5210 0005967 231.2903 128.6445  2.13103852  9599"}]